{
  "norad_id": 56880,
  "name": "STARLINK-6177",
  "history": [
    {
      "epoch": "2026-03-28T22:00:01.999584Z",
      "apogee_km": 500.762426783037,
      "perigee_km": 499.30150369482,
      "latitude_deg": 29.961065641881405,
      "longitude_deg": -38.211163053380275,
      "height_km": 501.32496725900893,
      "semi_major_axis_km": 6878.168965238928,
      "eccentricity": 0.0001062,
      "inclination_deg": 43.0011,
      "raan_deg": 336.0597,
      "arg_perigee_deg": 304.1117,
      "mean_anomaly_deg": 189.023,
      "mean_motion_rev_day": 15.21925878
    },
    {
      "epoch": "2026-03-29T04:00:01.999584Z",
      "apogee_km": 500.32154877482935,
      "perigee_km": 498.21018609452676,
      "latitude_deg": 38.04237340443392,
      "longitude_deg": 144.63706569468096,
      "height_km": 502.13864911584454,
      "semi_major_axis_km": 6877.402867434678,
      "eccentricity": 0.0001535,
      "inclination_deg": 43.0003,
      "raan_deg": 334.6614,
      "arg_perigee_deg": 284.1125,
      "mean_anomaly_deg": 140.1249,
      "mean_motion_rev_day": 15.22180184
    }
  ]
}